OBJECT_NAME,OBJECT_ID,EPOCH,MEAN_MOTION,ECCENTRICITY,INCLINATION,RA_OF_ASC_NODE,ARG_OF_PERICENTER,MEAN_ANOMALY,EPHEMERIS_TYPE,CLASSIFICATION_TYPE,NORAD_CAT_ID,ELEMENT_SET_NO,REV_AT_EPOCH,BSTAR,MEAN_MOTION_DOT,MEAN_MOTION_DDOT
SWARM B,2013-067A,2026-07-21T07:19:41.433888,15.28743016,.00022511,87.7466,331.9535,89.9406,270.2101,0,U,39451,999,68845,.9755335E-4,.2759E-4,0
SWARM A,2013-067B,2026-07-21T03:38:09.477312,15.51531605,.00033243,87.3303,43.6096,91.0473,269.1169,0,U,39452,999,71151,.12932302E-3,.769E-4,0
SWARM C,2013-067C,2026-07-21T05:10:54.268896,15.51532006,.00033004,87.3303,42.1663,91.1645,268.9995,0,U,39453,999,71148,.13089926E-3,.7783E-4,0
BRITE-CA1 (TORONTO),2014-033L,2026-07-21T01:51:44.283168,14.72730650,.00789149,97.9778,330.3886,167.4605,192.8591,0,U,40020,999,64720,.12113398E-3,.758E-5,0
OCO 2,2014-035A,2026-07-21T06:48:53.238528,14.57135320,.00014063,98.2021,143.0595,80.5338,279.6019,0,U,40059,999,64101,.65691098E-4,.251E-5,0
BRITE-PL2 (HEWELIUSZ),2014-049B,2026-07-21T02:44:26.733120,14.94697808,.00137589,97.9121,314.3825,2.9421,357.1877,0,U,40119,999,64651,.12337604E-3,.1281E-4,0
MMS 1,2015-011A,2026-07-21T08:00:01.999872,0.28348644,.83024541,72.5363,348.3906,168.1525,181.7699,0,U,40482,999,137,0,-.1358E-4,0
MMS 2,2015-011B,2026-07-21T08:00:01.999872,0.28348767,.83053374,72.5414,348.3895,168.1554,181.7560,0,U,40483,999,137,0,-.1359E-4,0
MMS 3,2015-011C,2026-07-21T08:00:01.999872,0.28348594,.83036374,72.5400,348.4015,168.1630,181.7304,0,U,40484,999,134,0,-.1358E-4,0
MMS 4,2015-011D,2026-07-21T08:00:01.999872,0.28348644,.8303592,72.5355,348.3849,168.1729,181.7265,0,U,40485,999,137,0,-.1358E-4,0
ASTROSAT,2015-052A,2026-07-20T23:55:13.482912,14.82557849,.00077493,5.9967,271.9942,161.5376,198.5034,0,U,40930,999,58485,.67073987E-4,.1222E-4,0
DAMPE,2015-078A,2026-07-21T06:56:56.521248,15.30861783,.00109024,97.4572,207.9270,322.7089,37.3394,0,U,41173,999,58976,.1984945E-4,.515E-5,0
PISAT,2016-059B,2026-07-20T23:55:25.656672,14.69036294,.00305673,97.8194,200.9997,97.1522,263.3162,0,U,41784,999,52470,.11012707E-3,.603E-5,0
HXMT (HUIYAN),2017-034A,2026-07-21T06:29:50.387712,15.18721747,.00314909,43.0152,353.2184,359.0435,1.0349,0,U,42758,999,50284,.16837616E-3,.3358E-4,0
FLYING LAPTOP,2017-042G,2026-07-21T07:29:01.484736,15.01335900,.00193127,97.4843,356.5672,13.0997,347.0725,0,U,42831,999,49157,.13694556E-3,.1712E-4,0
ZHANGHENG 1-01 (CSES-1),2018-015C,2026-07-21T06:52:56.870112,15.20658181,.00168463,97.6903,8.6270,144.6411,215.5945,0,U,43194,999,46982,.24896817E-3,.5413E-4,0
SALSAT,2020-068K,2026-07-21T06:49:18.463008,15.30225780,.00098552,97.8867,207.4380,171.6754,188.4651,0,U,46495,999,32057,.19458409E-3,.5612E-4,0
IXPE,2021-121A,2026-07-21T08:00:01.999872,15.10521492,.00073749,0.2318,58.9565,238.4747,139.9266,0,U,49954,999,589,.42859736E-3,.8207E-4,0
SMILE,2026-109A,2026-07-13T23:01:31.580256,0.47500629,.83137076,70.0512,206.6048,286.9544,0.1879,0,U,69123,999,6,0,.936E-5,0
