SWARM B                 
1 39451U 13067A   26202.30534067  .00002759  00000+0  97553-4 0  9994
2 39451  87.7466 331.9535 0002251  89.9406 270.2101 15.28743016688458
SWARM A                 
1 39452U 13067B   26202.15149858  .00007690  00000+0  12932-3 0  9994
2 39452  87.3303  43.6096 0003324  91.0473 269.1169 15.51531605711514
SWARM C                 
1 39453U 13067C   26202.21590589  .00007783  00000+0  13090-3 0  9992
2 39453  87.3303  42.1663 0003300  91.1645 268.9995 15.51532006711481
BRITE-CA1 (TORONTO)     
1 40020U 14033L   26202.07759587  .00000758  00000+0  12113-3 0  9997
2 40020  97.9778 330.3886 0078914 167.4605 192.8591 14.72730650647203
OCO 2                   
1 40059U 14035A   26202.28394952  .00000251  00000+0  65691-4 0  9993
2 40059  98.2021 143.0595 0001406  80.5338 279.6019 14.57135320641014
BRITE-PL2 (HEWELIUSZ)   
1 40119U 14049B   26202.11419830  .00001281  00000+0  12338-3 0  9993
2 40119  97.9121 314.3825 0013758   2.9421 357.1877 14.94697808646510
MMS 1                   
1 40482U 15011A   26202.33335648 -.00001358  00000+0  00000+0 0  9999
2 40482  72.5363 348.3906 8302454 168.1525 181.7699  0.28348644  1374
MMS 2                   
1 40483U 15011B   26202.33335648 -.00001359  00000+0  00000+0 0  9991
2 40483  72.5414 348.3895 8305337 168.1554 181.7560  0.28348767  1377
MMS 3                   
1 40484U 15011C   26202.33335648 -.00001358  00000+0  00000+0 0  9991
2 40484  72.5400 348.4015 8303637 168.1630 181.7304  0.28348594  1345
MMS 4                   
1 40485U 15011D   26202.33335648 -.00001358  00000+0  00000+0 0  9992
2 40485  72.5355 348.3849 8303592 168.1729 181.7265  0.28348644  1373
ASTROSAT                
1 40930U 15052A   26201.99668383  .00001222  00000+0  67074-4 0  9996
2 40930   5.9967 271.9942 0007749 161.5376 198.5034 14.82557849584857
DAMPE                   
1 41173U 15078A   26202.28954307  .00000515  00000+0  19849-4 0  9992
2 41173  97.4572 207.9270 0010902 322.7089  37.3394 15.30861783589768
PISAT                   
1 41784U 16059B   26201.99682473  .00000603  00000+0  11013-3 0  9991
2 41784  97.8194 200.9997 0030567  97.1522 263.3162 14.69036294524702
HXMT (HUIYAN)           
1 42758U 17034A   26202.27072208  .00003358  00000+0  16838-3 0  9998
2 42758  43.0152 353.2184 0031490 359.0435   1.0349 15.18721747502844
FLYING LAPTOP           
1 42831U 17042G   26202.31182274  .00001712  00000+0  13695-3 0  9999
2 42831  97.4843 356.5672 0019312  13.0997 347.0725 15.01335900491575
ZHANGHENG 1-01 (CSES-1) 
1 43194U 18015C   26202.28676933  .00005413  00000+0  24897-3 0  9997
2 43194  97.6903   8.6270 0016846 144.6411 215.5945 15.20658181469823
SALSAT                  
1 46495U 20068K   26202.28424147  .00005612  00000+0  19458-3 0  9991
2 46495  97.8867 207.4380 0009855 171.6754 188.4651 15.30225780320570
IXPE                    
1 49954U 21121A   26202.33335648  .00008207  00000+0  42860-3 0  9994
2 49954   0.2318  58.9565 0007374 238.4747 139.9266 15.10521492  5899
SMILE                   
1 69123U 26109A   26194.95939329  .00000936  00000+0  00000+0 0  9996
2 69123  70.0512 206.6048 8313707 286.9544   0.1879  0.47500629    65
